{
    "links": {
        "self": "http://www.neowsapp.com/rest/v1/neo/3599768?api_key=iIulBulltgU6a56xZRHN4H3l9WmuAYTsLGpBGhQ2"
    },
    "id": "3599768",
    "neo_reference_id": "3599768",
    "name": "(2012 DC28)",
    "designation": "2012 DC28",
    "nasa_jpl_url": "http://ssd.jpl.nasa.gov/sbdb.cgi?sstr=3599768",
    "absolute_magnitude_h": 23.4,
    "estimated_diameter": {
        "kilometers": {
            "estimated_diameter_min": 0.0555334912,
            "estimated_diameter_max": 0.1241766613
        },
        "meters": {
            "estimated_diameter_min": 55.5334911581,
            "estimated_diameter_max": 124.1766612574
        },
        "miles": {
            "estimated_diameter_min": 0.0345069009,
            "estimated_diameter_max": 0.0771597762
        },
        "feet": {
            "estimated_diameter_min": 182.1964991311,
            "estimated_diameter_max": 407.4037573197
        }
    },
    "is_potentially_hazardous_asteroid": false,
    "close_approach_data": [
        {
            "close_approach_date": "2012-02-25",
            "close_approach_date_full": "2012-Feb-25 13:40",
            "epoch_date_close_approach": 1330177200000,
            "relative_velocity": {
                "kilometers_per_second": "19.6605580707",
                "kilometers_per_hour": "70778.009054412",
                "miles_per_hour": "43978.7023482817"
            },
            "miss_distance": {
                "astronomical": "0.160802245",
                "lunar": "62.552073305",
                "kilometers": "24055673.34321815",
                "miles": "14947502.29058447"
            },
            "orbiting_body": "Earth"
        }
    ],
    "orbital_data": {
        "orbit_id": "7",
        "orbit_determination_date": "2017-04-06 08:50:50",
        "first_observation_date": "2012-02-24",
        "last_observation_date": "2012-02-28",
        "data_arc_in_days": 4,
        "observations_used": 40,
        "orbit_uncertainty": "9",
        "minimum_orbit_intersection": ".160799",
        "jupiter_tisserand_invariant": "4.381",
        "epoch_osculation": "2455982.5",
        "eccentricity": ".2134815723112261",
        "semi_major_axis": "1.460454193686394",
        "inclination": "37.80730431444942",
        "ascending_node_longitude": "336.3938609047963",
        "orbital_period": "644.6594258477404",
        "perihelion_distance": "1.148674136129699",
        "perihelion_argument": "171.7598044949703",
        "aphelion_distance": "1.77223425124309",
        "perihelion_time": "2455974.099048639106",
        "mean_anomaly": "4.691380236851058",
        "mean_motion": ".5584344005000664",
        "equinox": "J2000",
        "orbit_class": {
            "orbit_class_type": "AMO",
            "orbit_class_description": "Near-Earth asteroid orbits similar to that of 1221 Amor",
            "orbit_class_range": "1.017 AU < q (perihelion) < 1.3 AU"
        }
    },
    "is_sentry_object": false
}